{"type": "FeatureCollection", "features": [{"type": "Feature", "properties": {"norad_id": 50032, "name": "COSMOS 1408 DEB", "group": "cosmos-1408-debris", "lat": 39.36004892144063, "lon": 63.81206316873227, "alt_km": 436.437900241679, "timestamp": "2025-12-13T13:34:35.315208+00:00", "meta": {"OBJECT_NAME": "COSMOS 1408 DEB", "OBJECT_ID": "1982-092RU", "EPOCH": "2025-12-12T15:39:09.139968", "MEAN_MOTION": 15.45692174, "ECCENTRICITY": 0.00152369, "INCLINATION": 82.5643, "RA_OF_ASC_NODE": 58.5985, "ARG_OF_PERICENTER": 208.8397, "MEAN_ANOMALY": 151.2012, "EPHEMERIS_TYPE": 0, "CLASSIFICATION_TYPE": "U", "NORAD_CAT_ID": 50032, "ELEMENT_SET_NO": 999, "REV_AT_EPOCH": 22602, "BSTAR": 0.00014991822, "MEAN_MOTION_DOT": 7.305e-05, "MEAN_MOTION_DDOT": 0}, "tle": {"line1": "1 50032U 82092RU  25346.65218912  .00007305  00000+0  14992-3 0  9997", "line2": "2 50032  82.5643  58.5985 0015236 208.8397 151.2012 15.45692174226022"}}, "geometry": {"type": "Point", "coordinates": [63.81206316873227, 39.36004892144063]}}, {"type": "Feature", "properties": {"norad_id": 50058, "name": "COSMOS 1408 DEB", "group": "cosmos-1408-debris", "lat": -62.827974322640166, "lon": 53.83807190634012, "alt_km": 393.1638865508221, "timestamp": "2025-12-13T13:34:35.315226+00:00", "meta": {"OBJECT_NAME": "COSMOS 1408 DEB", "OBJECT_ID": "1982-092SW", "EPOCH": "2025-12-12T16:21:12.107232", "MEAN_MOTION": 15.64089875, "ECCENTRICITY": 0.00163361, "INCLINATION": 82.6136, "RA_OF_ASC_NODE": 69.4027, "ARG_OF_PERICENTER": 98.4134, "MEAN_ANOMALY": 261.8978, "EPHEMERIS_TYPE": 0, "CLASSIFICATION_TYPE": "U", "NORAD_CAT_ID": 50058, "ELEMENT_SET_NO": 999, "REV_AT_EPOCH": 22803, "BSTAR": 0.00043572408, "MEAN_MOTION_DOT": 0.00041655, "MEAN_MOTION_DDOT": 0}, "tle": {"line1": "1 50058U 82092SW  25346.68139013  .00041655  00000+0  43572-3 0  9994", "line2": "2 50058  82.6136  69.4027 0016336  98.4134 261.8978 15.64089875228031"}}, "geometry": {"type": "Point", "coordinates": [53.83807190634012, -62.827974322640166]}}, {"type": "Feature", "properties": {"norad_id": 50404, "name": "COSMOS 1408 DEB", "group": "cosmos-1408-debris", "lat": -76.6293074299101, "lon": 69.38912951515069, "alt_km": 476.30270650170405, "timestamp": "2025-12-13T13:34:35.315238+00:00", "meta": {"OBJECT_NAME": "COSMOS 1408 DEB", "OBJECT_ID": "1982-092ADS", "EPOCH": "2025-12-12T22:09:48.585600", "MEAN_MOTION": 15.1382944, "ECCENTRICITY": 0.01715157, "INCLINATION": 82.2033, "RA_OF_ASC_NODE": 214.8452, "ARG_OF_PERICENTER": 198.2286, "MEAN_ANOMALY": 161.2752, "EPHEMERIS_TYPE": 0, "CLASSIFICATION_TYPE": "U", "NORAD_CAT_ID": 50404, "ELEMENT_SET_NO": 999, "REV_AT_EPOCH": 21196, "BSTAR": 0.003851793, "MEAN_MOTION_DOT": 0.00101611, "MEAN_MOTION_DDOT": 0}, "tle": {"line1": "1 50404U 82092ADS 25346.92347900  .00101611  00000+0  38518-2 0  9994", "line2": "2 50404  82.2033 214.8452 0171515 198.2286 161.2752 15.13829440211965"}}, "geometry": {"type": "Point", "coordinates": [69.38912951515069, -76.6293074299101]}}, {"type": "Feature", "properties": {"norad_id": 50621, "name": "COSMOS 1408 DEB", "group": "cosmos-1408-debris", "lat": -68.0273895892715, "lon": 54.448536525317955, "alt_km": 419.7152116989437, "timestamp": "2025-12-13T13:34:35.315248+00:00", "meta": {"OBJECT_NAME": "COSMOS 1408 DEB", "OBJECT_ID": "1982-092ALR", "EPOCH": "2025-12-12T16:16:35.823360", "MEAN_MOTION": 15.56652836, "ECCENTRICITY": 0.00288991, "INCLINATION": 82.5701, "RA_OF_ASC_NODE": 74.2441, "ARG_OF_PERICENTER": 152.68, "MEAN_ANOMALY": 207.5983, "EPHEMERIS_TYPE": 0, "CLASSIFICATION_TYPE": "U", "NORAD_CAT_ID": 50621, "ELEMENT_SET_NO": 999, "REV_AT_EPOCH": 22249, "BSTAR": 0.00050710514, "MEAN_MOTION_DOT": 0.00036954, "MEAN_MOTION_DDOT": 0}, "tle": {"line1": "1 50621U 82092ALR 25346.67819240  .00036954  00000+0  50711-3 0  9995", "line2": "2 50621  82.5701  74.2441 0028899 152.6800 207.5983 15.56652836222499"}}, "geometry": {"type": "Point", "coordinates": [54.448536525317955, -68.0273895892715]}}]}